NUSAT-1 (FRESCO)        
1 41557U 16033B   21361.13659992  .00008341  00000+0  28188-3 0  9997
2 41557  97.3919  94.1425 0010764 271.5170 205.9004 15.30849514310990
BEESAT-4                
1 41619U 16040W   21360.11325423  .00008390  00000+0  31897-3 0  9995
2 41619  97.2448  50.7048 0010751  22.3438 337.8268 15.26973482294242
CAS-2T & KS-1Q          
1 41847U 16066G   21360.76493531  .00000405  00000+0  71054-4 0  9992
2 41847  98.5770  60.4421 0364965   6.3268 354.2347 14.38310588269520
NAYIF-1 (EO-88)         
1 42017U 17008BX  21361.17967978  .00008442  00000+0  29429-3 0  9993
2 42017  97.2944  65.2631 0006835 133.0731 227.1083 15.29859685270701
ZHUHAI-1 02 (CAS-4B)    
1 42759U 17034B   21361.07640951  .00002083  00000+0  13679-3 0  9998
2 42759  43.0161 201.8062 0009214 289.8456 213.1788 15.10663556250275
ZHUHAI-1 01 (CAS-4A)    
1 42761U 17034D   21361.05520258  .00002084  00000+0  13651-3 0  9997
2 42761  43.0167 200.8384 0009422 290.4074 206.9165 15.10750394250271
MAX VALIER SAT          
1 42778U 17036P   21360.68421131  .00004663  00000+0  19204-3 0  9990
2 42778  97.2316  42.8160 0010652 210.2200 149.8425 15.24533889250569
RADFXSAT (FOX-1B)       
1 43017U 17073E   21360.71083062  .00003374  00000+0  26047-3 0  9990
2 43017  97.6918 256.9336 0254028  33.0595 328.6210 14.80071976221557
FOX-1D (AO-92)          
1 43137U 18004AC  21360.89061205  .00005828  00000+0  22688-3 0  9995
2 43137  97.3893  72.8736 0006903 248.3022 111.7482 15.26364318220008
DIWATA-2B               
1 43678U 18084H   21361.15831707  .00000373  00000+0  42722-4 0  9997
2 43678  97.9479 127.7384 0010953 129.2152 231.0023 14.91862613172166
ES'HAIL 2               
1 43700U 18090A   21361.02341000  .00000164  00000+0  00000+0 0  9994
2 43700   0.0200 299.1576 0002607  13.5337 177.2700  1.00279093 11540
FOX-1CLIFF (AO-95)      
1 43770U 18099N   21361.15371929  .00001514  00000+0  14112-3 0  9990
2 43770  97.6451  66.8874 0015610 129.3048 230.9560 14.95628985167257
ITASAT 1                
1 43786U 18099AE  21360.76968719  .00000926  00000+0  87671-4 0  9999
2 43786  97.6473  67.3240 0016212 124.3442 235.9316 14.95880490167236
JY1SAT (JO-97)          
1 43803U 18099AX  21360.76536443  .00001110  00000+0  10334-3 0  9991
2 43803  97.6434  67.0569 0016136 123.8034 236.4726 14.96193320167242
UWE-4                   
1 43880U 18111E   21360.68587550  .00002442  00000+0  21581-3 0  9992
2 43880  97.6775 265.0309 0012310 171.8253 188.3171 14.97214506163845
NEXUS (FO-99)           
1 43937U 19003F   21360.67654797  .00006482  00000+0  24491-3 0  9994
2 43937  97.1544  36.0358 0023784  53.0754 307.2660 15.27049827163583
PSAT2 (NO-104)          
1 44354U 19036R   21360.89944710  .00025028  00000+0  29799-3 0  9998
2 44354  28.5280 276.8346 0293487 214.2399 143.8949 15.22000499138233
BRICSAT2 (NO-103)       
1 44355U 19036S   21360.88356361  .00088471 -45384-5  67898-3 0  9991
2 44355  28.5231 190.7254 0192268 354.5777   5.2753 15.49812511139088
JAISAT-1                
1 44419U 19038F   21360.88144278  .00004746  00000+0  25871-3 0  9993
2 44419  97.6150 325.2541 0021028  13.4556 346.7231 15.14696074136910
DUCHIFAT-3              
1 44854U 19089C   21361.14735046  .00002802  00000+0  22768-3 0  9994
2 44854  36.9665  40.7907 0008433 267.7285  92.2502 14.99912644112041
CAS-6 (TO-108)          
1 44881U 19093C   21361.16155974  .00000402  00000+0  57881-4 0  9996
2 44881  97.9104  77.7431 0015856  31.3334 328.8831 14.81531203109267
RS-44 & BREEZE-KM R/B   
1 44909U 19096E   21361.03388082  .00000029  00000+0  70904-4 0  9990
2 44909  82.5214 344.8469 0217527   3.1748 357.0675 12.79711836 93500
ORBITAL FACTORY 2 (OF-2)
1 45113U 19071C   21360.89292454  .00010566  00000+0  28615-3 0  9999
2 45113  51.6399 183.0463 0010467 266.6899  93.2887 15.38181033106768
HUSKYSAT-1 (HO-107)     
1 45119U 19071J   21360.91085731  .00010776  00000+0  29326-3 0  9999
2 45119  51.6394 182.4035 0010068 262.9139  97.0700 15.38009042106765
BY70-2                  
1 45857U 20042B   21361.20198081  .00004513  00000+0  63529-3 0  9999
2 45857  97.9718  74.8938 0009509 315.9457  44.1008 14.77775441 80000
SALSAT                  
1 46495U 20068K   21360.85638462  .00001398  00000+0  10618-3 0  9997
2 46495  97.7099 297.4080 0016911 136.9465 223.3086 15.03729163 68244
BY70-3                  
1 46839U 20079N   21361.13526517  .00013153  00000+0  37929-3 0  9996
2 46839  97.2222  71.1918 0005610 223.1937 221.9030 15.35817152 63758
RADFXSAT-2 (AO-109)     
1 47311U 21002C   21360.89773467  .00004575  00000+0  20410-3 0  9994
2 47311  60.6859 290.3257 0031709 146.1506 214.1614 15.22659048 52168
UVSQ-SAT                
1 47438U 21006AB  21361.11387693  .00003842  00000+0  21587-3 0  9998
2 47438  97.4637  58.6900 0013414 146.8900 213.3173 15.13819103 51191
DIY-1 (ARDUIQUBE)       
1 47963U 21022AH  21360.67525846  .00010003  00000+0  63726-3 0  9991
2 47963  97.5450 259.5901 0019592  11.8834 348.2853 15.08786282 40861
